OBJECT_NAME,OBJECT_ID,EPOCH,MEAN_MOTION,ECCENTRICITY,INCLINATION,RA_OF_ASC_NODE,ARG_OF_PERICENTER,MEAN_ANOMALY,EPHEMERIS_TYPE,CLASSIFICATION_TYPE,NORAD_CAT_ID,ELEMENT_SET_NO,REV_AT_EPOCH,BSTAR,MEAN_MOTION_DOT,MEAN_MOTION_DDOT
GEOSCAN 3 (RS92S3),2025-155T,2026-06-12T05:45:00.602784,15.35235100,.0005986,97.4529,133.0591,176.1696,183.9594,0,U,64893,999,8009,.54762673E-3,.18685E-3,0
INNOSAT 3 (RS92S0),2025-155U,2026-06-12T04:35:55.196448,15.43484692,.00056824,97.4477,134.5688,163.3711,196.7724,0,U,64894,999,8019,.91146582E-3,.40921E-3,0
KNACKSAT-2,1998-067XZ,2026-06-11T17:05:46.405824,15.59478995,.00098455,51.6308,322.0071,191.1847,168.8928,0,U,67683,999,1942,.58268258E-3,.46941E-3,0
