GEOSCAN 3 (RS92S3)      
1 64893U 25155T   26163.23959031  .00018685  00000+0  54763-3 0  9993
2 64893  97.4529 133.0591 0005986 176.1696 183.9594 15.35235100 80095
INNOSAT 3 (RS92S0)      
1 64894U 25155U   26163.19161107  .00040921  00000+0  91147-3 0  9993
2 64894  97.4477 134.5688 0005682 163.3711 196.7724 15.43484692 80199
KNACKSAT-2              
1 67683U 98067XZ  26162.71234266  .00046941  00000+0  58268-3 0  9993
2 67683  51.6308 322.0071 0009845 191.1847 168.8928 15.59478995 19427
